[{"OBJECT_NAME":"ICEYE-X26","OBJECT_ID":"2023-084AF","EPOCH":"2026-03-09T22:36:43.632288","MEAN_MOTION":15.73279775,"ECCENTRICITY":9.181e-5,"INCLINATION":97.5771,"RA_OF_ASC_NODE":224.5701,"ARG_OF_PERICENTER":250.447,"MEAN_ANOMALY":109.6694,"EPHEMERIS_TYPE":0,"CLASSIFICATION_TYPE":"U","NORAD_CAT_ID":56961,"ELEMENT_SET_NO":999,"REV_AT_EPOCH":15354,"BSTAR":0.00052391916,"MEAN_MOTION_DOT":0.00072488,"MEAN_MOTION_DDOT":0},{"OBJECT_NAME":"STARLINK-11748 [DTC]","OBJECT_ID":"2025-127D","EPOCH":"2026-03-09T22:05:20.726592","MEAN_MOTION":15.7102398,"ECCENTRICITY":0.00021155,"INCLINATION":43.0005,"RA_OF_ASC_NODE":83.5949,"ARG_OF_PERICENTER":249.4528,"MEAN_ANOMALY":110.6113,"EPHEMERIS_TYPE":0,"CLASSIFICATION_TYPE":"U","NORAD_CAT_ID":64373,"ELEMENT_SET_NO":999,"REV_AT_EPOCH":4353,"BSTAR":0.002045842,"MEAN_MOTION_DOT":0.0027297,"MEAN_MOTION_DDOT":0}]
